COSMOS 1408 DEB         
1 50032U 82092RU  26158.46403670  .00004913  00000+0  94156-4 0  9998
2 50032  82.5629 237.0792 0013615 292.7381  67.2429 15.47623694253357
COSMOS 1408 DEB         
1 50058U 82092SW  26158.69129936  .00064253  00000+0  33757-3 0  9993
2 50058  82.6085 241.9997 0011398 152.1354 208.0527 15.80411795255831
COSMOS 1408 DEB         
1 50621U 82092ALR 26158.69479919  .00039299  00000+0  34162-3 0  9991
2 50621  82.5652 248.2963 0021317 209.9729 150.0314 15.68573530250138
